H1 CPF  1  DLR 2021 03 28 10  5872 technosat            
H2  1704205 6203    42829 2021 03 28 00 00 00 2021 04 04 00 00 00    60 1 1  0 0 0
H9
10 0 59304   7200.000000  0      -1781279.742       6733063.409        222285.015
10 0 59304   7260.000000  0      -1687050.489       6726440.959        671493.787
10 0 59304   7320.000000  0      -1585875.624       6690525.214       1117842.607
10 0 59304   7380.000000  0      -1478436.662       6625401.083       1559429.124
10 0 59304   7440.000000  0      -1365440.912       6531284.859       1994370.523
10 0 59304   7500.000000  0      -1247617.271       6408523.511       2420811.849
10 0 59304   7560.000000  0      -1125711.943       6257593.349       2836934.191
10 0 59304   7620.000000  0      -1000484.090       6079098.078       3240962.716
10 0 59304   7680.000000  0       -872701.412       5873766.211       3631174.461
10 0 59304   7740.000000  0       -743135.781       5642447.971       4005905.882
10 0 59304   7800.000000  0       -612558.885       5386111.549       4363560.296
10 0 59304   7860.000000  0       -481737.804       5105838.573       4702614.928
10 0 59304   7920.000000  0       -351430.643       4802819.022       5021627.359
10 0 59304   7980.000000  0       -222382.329       4478345.893       5319241.469
10 0 59304   8040.000000  0        -95320.563       4133809.525       5594193.210
10 0 59304   8100.000000  0         29048.098       3770691.323       5845316.061
10 0 59304   8160.000000  0        150042.043       3390556.964       6071545.911
10 0 59304   8220.000000  0        267008.191       2995049.324       6271925.366
10 0 59304   8280.000000  0        379325.403       2585881.166       6445607.637
10 0 59304   8340.000000  0        486407.671       2164827.502       6591859.998
10 0 59304   8400.000000  0        587707.099       1733717.658       6710066.734
10 0 59304   8460.000000  0        682716.623       1294427.109       6799731.538
10 0 59304   8520.000000  0        770972.480        848869.194       6860479.387
10 0 59304   8580.000000  0        852056.427        398986.744       6892057.951
10 0 59304   8640.000000  0        925597.701        -53256.428       6894338.585
10 0 59304   8700.000000  0        991274.677       -505884.195       6867316.845
10 0 59304   8760.000000  0       1048816.263       -956916.888       6811112.396
10 0 59304   8820.000000  0       1098003.026      -1404379.974       6725968.412
10 0 59304   8880.000000  0       1138667.982      -1846312.754       6612250.556
10 0 59304   8940.000000  0       1170697.131      -2280777.044       6470445.429
10 0 59304   9000.000000  0       1194029.717      -2705865.782       6301158.521
10 0 59304   9060.000000  0       1208658.112      -3119711.540       6105111.636
10 0 59304   9120.000000  0       1214627.414      -3520494.793       5883139.792
10 0 59304   9180.000000  0       1212034.839      -3906451.966       5636187.707
10 0 59304   9240.000000  0       1201028.808      -4275883.275       5365305.853
10 0 59304   9300.000000  0       1181807.741      -4627160.324       5071646.110
10 0 59304   9360.000000  0       1154618.595      -4958733.465       4756456.990
10 0 59304   9420.000000  0       1119755.128      -5269138.882       4421078.408
10 0 59304   9480.000000  0       1077555.878      -5557005.317       4066935.983
10 0 59304   9540.000000  0       1028401.924      -5821060.345       3695534.930
10 0 59304   9600.000000  0        972714.403      -6060136.192       3308453.592
10 0 59304   9660.000000  0        910951.797      -6273175.057       2907336.664
10 0 59304   9720.000000  0        843606.982      -6459233.983       2493888.142
10 0 59304   9780.000000  0        771204.063      -6617489.194       2069863.958
10 0 59304   9840.000000  0        694295.089      -6747239.842       1637064.392
10 0 59304   9900.000000  0        613456.633      -6847911.252       1197326.327
10 0 59304   9960.000000  0        529286.209      -6919057.645        752515.225
10 0 59304  10020.000000  0        442398.515      -6960364.142        304516.926
10 0 59304  10080.000000  0        353421.610      -6971648.066       -144770.637
10 0 59304  10140.000000  0        262993.063      -6952859.571       -593445.711
10 0 59304  10200.000000  0        171756.070      -6904081.655      -1039610.950
10 0 59304  10260.000000  0         80355.546      -6825529.545      -1481381.586
10 0 59304  10320.000000  0        -10565.751      -6717549.481      -1916893.463
10 0 59304  10380.000000  0       -100371.066      -6580616.931      -2344310.976
10 0 59304  10440.000000  0       -188433.452      -6415334.196      -2761834.857
10 0 59304  10500.000000  0       -274139.503      -6222427.434      -3167709.747
10 0 59304  10560.000000  0       -356892.989      -6002743.135      -3560231.551
10 0 59304  10620.000000  0       -436118.373      -5757244.016      -3937754.518
10 0 59304  10680.000000  0       -511264.180      -5487004.401      -4298697.964
10 0 59304  10740.000000  0       -581806.209      -5193205.179      -4641552.635
10 0 59304  10800.000000  0       -647250.578      -4877128.376      -4964886.745
10 0 59304  10860.000000  0       -707136.586      -4540151.290      -5267351.671
10 0 59304  10920.000000  0       -761039.369      -4183740.274      -5547687.248
10 0 59304  10980.000000  0       -808572.330      -3809444.176      -5804726.668
10 0 59304  11040.000000  0       -849389.359      -3418887.510      -6037400.979
10 0 59304  11100.000000  0       -883186.824      -3013763.331      -6244743.181
10 0 59304  11160.000000  0       -909705.325      -2595825.875      -6425891.879
10 0 59304  11220.000000  0       -928731.201      -2166883.016      -6580094.492
10 0 59304  11280.000000  0       -940097.800      -1728788.577      -6706710.066
10 0 59304  11340.000000  0       -943686.502      -1283434.500      -6805211.665
10 0 59304  11400.000000  0       -939427.497       -832742.876      -6875188.383
10 0 59304  11460.000000  0       -927300.277       -378657.846      -6916346.894
10 0 59304  11520.000000  0       -907333.857         76862.529      -6928512.506
10 0 59304  11580.000000  0       -879606.758        531854.348      -6911629.850
10 0 59304  11640.000000  0       -844246.733        984356.060      -6865763.233
10 0 59304  11700.000000  0       -801430.221       1432416.689      -6791096.453
10 0 59304  11760.000000  0       -751381.589       1874103.920      -6687932.209
10 0 59304  11820.000000  0       -694372.079       2307512.207      -6556691.167
10 0 59304  11880.000000  0       -630718.492       2730770.836      -6397910.561
10 0 59304  11940.000000  0       -560781.624       3142051.906      -6212242.373
10 0 59304  12000.000000  0       -484964.458       3539578.223      -6000451.019
10 0 59304  12060.000000  0       -403710.082       3921630.950      -5763410.542
10 0 59304  12120.000000  0       -317499.395       4286557.057      -5502101.457
10 0 59304  12180.000000  0       -226848.600       4632776.643      -5217607.165
10 0 59304  12240.000000  0       -132306.464       4958790.006      -4911109.865
10 0 59304  12300.000000  0        -34451.376       5263184.432      -4583886.032
10 0 59304  12360.000000  0         66111.805       5544640.647      -4237301.448
10 0 59304  12420.000000  0        168755.089       5801938.914      -3872805.803
10 0 59304  12480.000000  0        272830.850       6033964.706      -3491926.897
10 0 59304  12540.000000  0        377675.485       6239713.978      -3096264.484
10 0 59304  12600.000000  0        482613.201       6418298.004      -2687483.702
10 0 59304  12660.000000  0        586959.915       6568947.697      -2267308.151
10 0 59304  12720.000000  0        690027.259       6691017.411      -1837512.642
10 0 59304  12780.000000  0        791126.641       6783988.148      -1399915.625
10 0 59304  12840.000000  0        889573.345       6847470.185       -956371.385
10 0 59304  12900.000000  0        984690.659       6881205.098       -508762.006
10 0 59304  12960.000000  0       1075814.017       6885067.128        -58989.124
10 0 59304  13020.000000  0       1162295.070       6859063.859        391034.429
10 0 59304  13080.000000  0       1243505.691       6803336.237        839393.056
10 0 59304  13140.000000  0       1318841.852       6718157.950       1284176.831
10 0 59304  13200.000000  0       1387727.427       6603934.212       1723489.942
10 0 59304  13260.000000  0       1449617.823       6461199.855       2155459.134
10 0 59304  13320.000000  0       1504003.462       6290616.778       2578241.972
10 0 59304  13380.000000  0       1550413.143       6092970.830       2990035.001
10 0 59304  13440.000000  0       1588417.128       5869168.048       3389081.824
10 0 59304  13500.000000  0       1617629.955       5620230.217       3773680.876
10 0 59304  13560.000000  0       1637713.137       5347289.910       4142192.802
10 0 59304  13620.000000  0       1648377.616       5051585.113       4493047.696
10 0 59304  13680.000000  0       1649385.770       4734453.190       4824752.108
10 0 59304  13740.000000  0       1640553.169       4397324.302       5135895.361
10 0 59304  13800.000000  0       1621750.062       4041714.605       5425155.374
10 0 59304  13860.000000  0       1592902.612       3669219.230       5691304.192
10 0 59304  13920.000000  0       1553993.840       3281504.856       5933213.206
10 0 59304  13980.000000  0       1505064.197       2880301.943       6149857.859
10 0 59304  14040.000000  0       1446211.832       2467396.746       6340321.866
10 0 59304  14100.000000  0       1377592.582       2044623.111       6503800.955
10 0 59304  14160.000000  0       1299419.645       1613854.089       6639606.107
10 0 59304  14220.000000  0       1211962.921       1176993.422       6747166.232
10 0 59304  14280.000000  0       1115548.066        735967.044       6826030.342
10 0 59304  14340.000000  0       1010555.260        292714.558       6875869.284
99
